     2.100          NAVIGATION                              RINEX VERSION / TYPE
fic2rin                                 06/14/2010 00:07:47 PGM / RUN BY / DATE
                                                            END OF HEADER
11 10  6 13 22  0  0.0 -.688475556672D-04 -.250111042988D-11  .000000000000D+00
     .510000000000D+02 -.628125000000D+01  .652955769657D-08 -.171765949054D+01
    -.309199094772D-06  .106832224410D-01  .419653952122D-05  .515373341370D+04
     .792000000000D+05  .188127160072D-06 -.124103111189D+01 -.173225998878D-06
     .887919545779D+00  .257937500000D+03  .808730336008D+00 -.881786729957D-08
    -.110718897601D-09  .100000000000D+01  .158800000000D+04  .000000000000D+00
     .240000000000D+01  .000000000000D+00 -.116415321827D-07  .510000000000D+02
     .720060000000D+05  .400000000000D+01
12 10  6 13 22  0  0.0 -.104480888695D-03  .409272615798D-11  .000000000000D+00
     .570000000000D+02 -.126125000000D+03  .406016912234D-08 -.164221797260D+01
    -.656023621559D-05  .351580942515D-02  .101812183857D-04  .515368500519D+04
     .792000000000D+05 -.372529029846D-07 -.309010168081D+01 -.115483999252D-06
     .971437789083D+00  .186843750000D+03 -.411582909566D+00 -.776532345689D-08
     .492877673191D-10  .100000000000D+01  .158800000000D+04  .000000000000D+00
     .240000000000D+01  .000000000000D+00 -.116415321827D-07  .570000000000D+02
     .720060000000D+05  .400000000000D+01
13 10  6 13 22  0  0.0  .303301494569D-03 -.454747350886D-12  .000000000000D+00
     .128000000000D+03  .146281250000D+03  .385623205612D-08  .859734613500D+00
     .751949846745D-05  .450284872204D-02  .406801700592D-05  .515374850655D+04
     .792000000000D+05 -.372529029846D-07  .115789796861D+01 -.577419996262D-07
     .992648056073D+00  .314906250000D+03  .174033613249D+01 -.802854870699D-08
     .433232331580D-09  .100000000000D+01  .158800000000D+04  .000000000000D+00
     .240000000000D+01  .000000000000D+00 -.107102096081D-07  .128000000000D+03
     .720060000000D+05  .400000000000D+01
14 10  6 13 22  0  0.0  .567086972296D-04  .420641299570D-11  .000000000000D+00
     .720000000000D+02  .132937500000D+03  .397873715894D-08  .739004153735D+00
     .676512718201D-05  .512094039004D-02  .409595668316D-05  .515375410843D+04
     .792000000000D+05 -.521540641785D-07  .113598050068D+01  .614672899246D-07
     .985914734232D+00  .311406250000D+03 -.214098712923D+01 -.806890753096D-08
     .323942064916D-09  .100000000000D+01  .158800000000D+04  .000000000000D+00
     .240000000000D+01  .000000000000D+00 -.884756445885D-08  .720000000000D+02
     .720060000000D+05  .400000000000D+01
15 10  6 13 22  0  0.0 -.256765168160D-03  .659383658785D-11  .000000000000D+00
     .370000000000D+02  .135375000000D+03  .466019411579D-08  .609918553350D+00
     .713579356670D-05  .248736911453D-02  .516325235367D-05  .515377149582D+04
     .792000000000D+05  .428408384323D-07  .107134491345D+01 -.260770320892D-07
     .953539258486D+00  .275500000000D+03 -.168882137705D+00 -.826927301984D-08
     .352871841386D-09  .100000000000D+01  .158800000000D+04  .000000000000D+00
     .240000000000D+01  .000000000000D+00 -.977888703346D-08  .370000000000D+02
     .720060000000D+05  .400000000000D+01
16 10  6 13 22  0  0.0 -.811675563455D-04 -.363797880709D-11  .000000000000D+00
     .670000000000D+02 -.124125000000D+03  .406588364609D-08  .232626918279D+01
    -.620633363724D-05  .596028554719D-02  .110939145088D-04  .515378936195D+04
     .792000000000D+05 -.242143869400D-07 -.307266756087D+01  .165775418282D-06
     .972646962559D+00  .173375000000D+03 -.202570142088D+00 -.767960560068D-08
     .464305054455D-11  .100000000000D+01  .158800000000D+04  .000000000000D+00
     .240000000000D+01  .000000000000D+00 -.977888703346D-08  .670000000000D+02
     .720060000000D+05  .400000000000D+01
17 10  6 13 22  0  0.0  .156484544277D-03  .204636307899D-11  .000000000000D+00
     .930000000000D+02  .450000000000D+01  .467019453235D-08  .118684102453D+01
     .366941094398D-06  .545301928651D-02  .877492129803D-05  .515361236572D+04
     .792000000000D+05 -.186264514923D-08 -.202997021730D+01  .102445483208D-06
     .959963525717D+00  .212187500000D+03 -.250081190499D+01 -.797140346952D-08
     .477877048354D-09  .100000000000D+01  .158800000000D+04  .000000000000D+00
     .340000000000D+01  .000000000000D+00 -.102445483208D-07  .930000000000D+02
     .720060000000D+05  .400000000000D+01
18 10  6 13 22  0  0.0  .744648277760D-04  .238742359215D-11  .000000000000D+00
     .490000000000D+02  .573125000000D+02  .451625954891D-08  .264469611403D+01
     .305101275444D-05  .114946250105D-01  .118371099234D-04  .515370519829D+04
     .792000000000D+05  .558793544769D-08  .634289899577D-01 -.163912773132D-06
     .937544095492D+00  .137500000000D+03 -.233383478067D+01 -.775603735580D-08
    -.314655963827D-09  .100000000000D+01  .158800000000D+04  .000000000000D+00
     .240000000000D+01  .000000000000D+00 -.107102096081D-07  .490000000000D+02
     .720060000000D+05  .400000000000D+01
19 10  6 13 22  0  0.0 -.420431606472D-04 -.272848410532D-11  .000000000000D+00
     .960000000000D+02  .114062500000D+02  .485234497679D-08  .526476247197D+00
     .478699803352D-06  .658507284243D-02  .772066414356D-05  .515373835373D+04
     .792000000000D+05  .912696123123D-07 -.197497259331D+01  .465661287308D-07
     .957541574136D+00  .224031250000D+03 -.147394933008D+00 -.809748014969D-08
     .453233164695D-09  .100000000000D+01  .158800000000D+04  .000000000000D+00
     .240000000000D+01  .000000000000D+00 -.149011611938D-07  .960000000000D+02
     .720060000000D+05  .400000000000D+01
20 10  6 13 22  0  0.0  .546933151782D-04 -.568434188608D-12  .000000000000D+00
     .820000000000D+02  .631562500000D+02  .453947480163D-08  .282310912937D+01
     .326707959175D-05  .420966150705D-02  .115558505058D-04  .515359787560D+04
     .792000000000D+05  .447034835815D-07  .951644448954D-02 -.372529029846D-08
     .937424746246D+00  .143437500000D+03  .132645113992D+01 -.779639617977D-08
    -.451804533758D-09  .100000000000D+01  .158800000000D+04  .000000000000D+00
     .240000000000D+01  .000000000000D+00 -.791624188423D-08  .820000000000D+02
     .720060000000D+05  .400000000000D+01
21 10  6 13 22  0  0.0 -.669024884701D-04 -.261479726760D-11  .000000000000D+00
     .150000000000D+02 -.225937500000D+02  .539843915237D-08 -.253568722247D+01
    -.134110450745D-05  .166637644870D-01  .556930899620D-05  .515365824890D+04
     .792000000000D+05  .104308128357D-06 -.992991524368D+00 -.268220901489D-06
     .932219075146D+00  .256156250000D+03 -.247222577182D+01 -.823677166603D-08
    -.263582407837D-09  .100000000000D+01  .158800000000D+04  .000000000000D+00
     .240000000000D+01  .000000000000D+00 -.121071934700D-07  .150000000000D+02
     .720060000000D+05  .400000000000D+01
22 10  6 13 22  0  0.0  .169788487256D-03 -.795807864051D-12  .000000000000D+00
     .750000000000D+02  .582187500000D+02  .468019494891D-08  .171816243154D+01
     .310502946377D-05  .534243264701D-02  .111237168312D-04  .515372375298D+04
     .792000000000D+05 -.521540641785D-07  .683010352751D-01 -.931322574615D-07
     .935225774102D+00  .150937500000D+03 -.194505124603D+01 -.799854745732D-08
    -.341442793891D-09  .100000000000D+01  .158800000000D+04  .000000000000D+00
     .240000000000D+01  .000000000000D+00 -.176951289177D-07  .750000000000D+02
     .720060000000D+05  .400000000000D+01
23 10  6 13 22  0  0.0  .367115251720D-03 -.147792889038D-11  .000000000000D+00
     .149000000000D+03  .146937500000D+03  .435518141079D-08  .775848801788D-02
     .770017504692D-05  .676240853500D-02  .406056642532D-05  .515368382072D+04
     .792000000000D+05  .109896063805D-06  .109671324127D+01 -.353902578354D-07
     .967759768725D+00  .303687500000D+03  .302384452203D+01 -.828463080241D-08
     .420017495415D-09  .100000000000D+01  .158800000000D+04  .000000000000D+00
     .240000000000D+01  .000000000000D+00 -.200234353542D-07  .149000000000D+03
     .720060000000D+05  .400000000000D+01
24 10  6 13 22  0  0.0  .295947305858D-03  .329691829393D-11  .000000000000D+00
     .630000000000D+02 -.171562500000D+02  .509771234018D-08  .107166847143D+01
    -.957399606705D-06  .567540351767D-02  .569410622120D-05  .515484396172D+04
     .792000000000D+05  .117346644402D-06 -.954197830558D+00  .372529029846D-07
     .948853518712D+00  .261593750000D+03 -.472079174484D+00 -.822712840721D-08
    -.459662003910D-09  .100000000000D+01  .158800000000D+04  .000000000000D+00
     .340000000000D+01  .000000000000D+00 -.139698386192D-08  .630000000000D+02
     .720060000000D+05  .400000000000D+01
26 10  6 13 22  0  0.0 -.657243654132D-04 -.557065504836D-11  .000000000000D+00
     .120000000000D+03  .127937500000D+03  .396445084958D-08 -.825814019772D+00
     .719353556633D-05  .193886965280D-01  .473484396935D-05  .515237322998D+04
     .792000000000D+05 -.353902578354D-07  .115439882509D+01  .366941094398D-06
     .990375727364D+00  .306906250000D+03  .109989141178D+01 -.817355474708D-08
     .386801826134D-09  .100000000000D+01  .158800000000D+04  .000000000000D+00
     .340000000000D+01  .000000000000D+00 -.605359673500D-08  .120000000000D+03
     .720060000000D+05  .400000000000D+01
27 10  6 13 22  0  0.0  .160758849233D-03  .341060513165D-11  .000000000000D+00
     .111000000000D+03 -.433437500000D+02  .468876673453D-08  .773299358359D+00
    -.267289578915D-05  .215256641386D-01  .895932316780D-06  .515361415863D+04
     .792000000000D+05 -.219792127609D-06  .208332645013D+01 -.221654772758D-06
     .978389381228D+00  .377937500000D+03 -.141104642887D+01 -.871536302985D-08
    -.124290891500D-09  .100000000000D+01  .158800000000D+04  .000000000000D+00
     .340000000000D+01  .000000000000D+00 -.419095158577D-08  .111000000000D+03
     .720060000000D+05  .400000000000D+01
